satname,norad_id,inclination_deg,eccentricity,mean_motion_rev_per_day,perigee_km,apogee_km,l1,l2
STARLINK-1008,44714,53.0528,0.0001286,15.06404349,546.3076308012778,548.088827022154,1 44714U 19074B   25287.07828019  .00000045  00000+0  21936-4 0  9993,2 44714  53.0528 124.7813 0001286  89.0418 271.0718 15.06404349326652
STARLINK-1010,44716,53.0469,0.000253,15.88040064,306.0867780276694,309.46985117685836,1 44716U 19074D   25287.33335648  .00324050  00000+0  11256-2 0  9992,2 44716  53.0469  59.7823 0002530  84.9399  62.5155 15.88040064  6014
STARLINK-1011,44717,53.0487,0.0004285,15.77100733,335.78179068478767,341.5380856608017,1 44717U 19074E   25287.33335648  .00219215  00000+0  12872-2 0  9994,2 44717  53.0487 115.3738 0004285 158.7998   6.5122 15.77100733  5821
STARLINK-1012,44718,53.053,0.0001464,15.06399521,546.1991547608704,548.2268972484853,1 44718U 19074F   25287.25522411 -.00001790  00000+0 -10133-3 0  9990,2 44718  53.0530 123.9888 0001464  97.1575 262.9581 15.06399521326678
STARLINK-1017,44723,53.0511,0.0005031,15.13155816,523.109265795285,530.0567950899167,1 44723U 19074L   25287.05269569  .00036962  00000+0  20662-2 0  9990,2 44723  53.0511 122.4255 0005031 121.4028 238.7457 15.13155816326682
STARLINK-1019,44724,53.0528,0.0001767,15.06404209,545.974951178754,548.4223648002871,1 44724U 19074M   25287.05247426  .00000335  00000+0  41405-4 0  9994,2 44724  53.0528 124.9003 0001767  94.3618 265.7573 15.06404209326644
STARLINK-1020,44725,53.0527,0.0001398,15.0640328,546.2333429058936,548.1696675519552,1 44725U 19074N   25287.12435864  .00001021  00000+0  87435-4 0  9994,2 44725  53.0527 144.5776 0001398  86.0634 274.0515 15.06403280326372
STARLINK-1029,44734,53.0451,0.0005287,16.15074028,229.46506520729235,236.4556395476975,1 44734U 19074X   25287.57959697  .01096973  82162-3  80982-3 0  9991,2 44734  53.0451 333.0920 0005287  19.6067 340.5171 16.15074028328797
STARLINK-1031,44736,53.0521,0.000939,15.43057836,430.69122255794264,443.4902202187104,1 44736U 19074Z   25287.26937276  .00119923  00000+0  26381-2 0  9997,2 44736  53.0521 118.0004 0009390 131.5487 228.6325 15.43057836326771
STARLINK-1036,44741,53.0554,0.0001365,15.06405548,546.2492464123789,548.1398619266674,1 44741U 19074AE  25286.88845159 -.00000799  00000+0 -34719-4 0  9996,2 44741  53.0554 145.6362 0001365 100.1666 259.9477 15.06405548326345
STARLINK-1039,44744,53.0497,0.0007057,15.11402695,527.0448975441423,536.7977538650412,1 44744U 19074AH  25286.95484886  .00037884  00000+0  22222-2 0  9990,2 44744  53.0497 163.9966 0007057  89.1951 270.9849 15.11402695326098
STARLINK-1042,44747,53.0468,0.0003288,15.42132876,437.5738553278561,442.057340956394,1 44747U 19074AL  25286.70979548  .00025430  00000+0  59233-3 0  9997,2 44747  53.0468  75.8790 0003288  79.7955 280.3420 15.42132876327339
STARLINK-1043,44748,53.0521,0.000127,15.06402871,546.3232406013904,548.0822769001134,1 44748U 19074AM  25286.92716526  .00009976  00000+0  68762-3 0  9991,2 44748  53.0521 165.4627 0001270  81.1199 278.9934 15.06402871326079
STARLINK-1046,44751,53.0523,0.0001574,15.06423495,546.0495115541034,548.2295886120701,1 44751U 19074AQ  25287.07459794  .00010240  00000+0  70493-3 0  9993,2 44751  53.0523 164.7994 0001574  88.2128 271.9042 15.06423495326091
STARLINK-1047,44752,53.0712,0.000507,15.28731559,476.12620461509687,483.07995305503573,1 44752U 19074AR  25287.24126683  .00013008  00000+0  47107-3 0  9992,2 44752  53.0712 108.1899 0005070 117.5701 242.5813 15.28731559326914
STARLINK-1048,44753,53.0523,0.0001135,15.06409555,546.3962496567119,547.9682971317725,1 44753U 19074AS  25287.03404917  .00002369  00000+0  17781-3 0  9992,2 44753  53.0523 124.9810 0001135  80.6147 279.4971 15.06409555326644
STARLINK-1053,44758,53.041,5.86e-05,15.58091786,392.78325493863304,393.57685329737615,1 44758U 19074AX  25287.17136453  .00057430  00000+0  75118-3 0  9996,2 44758  53.0410  89.2146 0000586 141.3986 218.7067 15.58091786327175
STARLINK-1054,44759,53.0399,0.0004785,15.7812271,332.5472036676392,338.97240290838727,1 44759U 19074AY  25287.33335648  .00374166  00000+0  20587-2 0  9999,2 44759  53.0399 115.5433 0004785 126.3197 310.1223 15.78122710  5972
STARLINK-1056,44761,53.0385,0.0002664,15.90664639,298.64267641814786,302.20101257049464,1 44761U 19074BA  25287.33335648  .00390733  68396-4  12421-2 0  9995,2 44761  53.0385 102.8994 0002664 122.9523 122.2564 15.90664639  6000
STARLINK-1060,44765,53.0544,6.85e-05,15.59541907,388.5183713837914,389.4454666756983,1 44765U 19074BE  25287.33335648 -.00044090  00000+0 -54172-3 0  9996,2 44765  53.0544 134.7595 0000685  96.9137 207.4580 15.59541907  5802
STARLINK-1063,44768,53.0531,0.0001396,15.06399749,546.2455484511529,548.1791059833131,1 44768U 19074BH  25287.12988743  .00002632  00000+0  19552-3 0  9993,2 44768  53.0531 164.5524 0001396  86.9282 273.1867 15.06399749326119
STARLINK-1067,44771,53.0509,0.0002105,15.06384649,545.8008111666113,548.7164027171339,1 44771U 19074BL  25286.65442224  .00000626  00000+0  60938-4 0  9999,2 44771  53.0509 166.6870 0002105  92.5196 267.6034 15.06384649326039
STARLINK-1068,44772,53.0523,0.0001208,15.06408316,546.3494916863092,548.0226497401936,1 44772U 19074BM  25287.30864779 -.00002351  00000+0 -13894-3 0  9993,2 44772  53.0523 143.7506 0001208  94.0925 266.0202 15.06408316326407
STARLINK-1112,44925,53.0506,0.0002423,15.5089325,412.4710166229179,415.7625428045667,1 44925U 20001M   25287.33335648  .00190053  00000+0  31605-2 0  9990,2 44925  53.0506 247.1121 0002423  89.1226 207.4397 15.50893250  5704
STARLINK-1114,44927,53.0539,0.0001543,15.06410799,546.1098845807455,548.2470369319344,1 44927U 20001P   25287.21466287  .00002723  00000+0  20156-3 0  9999,2 44927  53.0539 284.1730 0001543  93.3953 266.7213 15.06410799317777
STARLINK-1123,44930,53.0541,0.00015,15.06409011,546.1451425176683,548.2227387998664,1 44930U 20001S   25287.29574667  .00001192  00000+0  98883-4 0  9995,2 44930  53.0541 283.8080 0001500  83.8392 276.2768 15.06409011317789
STARLINK-1144,44933,53.044,0.0013004,15.55708105,391.28062337787924,408.9094492579352,1 44933U 20001V   25287.33335648  .00190250  00000+0  26498-2 0  9992,2 44933  53.0440 224.7729 0013004  34.0617 314.9386 15.55708105  5784
STARLINK-1091,44940,53.039,0.0002549,15.88929058,303.5806646294395,306.9878727922278,1 44940U 20001AC  25287.33335648  .00315107  00000+0  10483-2 0  9997,2 44940  53.0390 205.4611 0002549 107.2388 351.2370 15.88929058  5743
STARLINK-1094,44941,53.0541,0.0001242,15.06407923,546.32714991585,548.0474004658063,1 44941U 20001AD  25287.24229726  .00001345  00000+0  10913-3 0  9992,2 44941  53.0541 264.0464 0001242  86.6843 273.4288 15.06407923318050
STARLINK-1096,44942,52.9908,0.0004796,15.83155829,318.30935703818795,324.73567044376796,1 44942U 20001AE  25287.33335648  .00216105  00000+0  96267-3 0  9992,2 44942  52.9908  32.4278 0004796 339.7637 147.9870 15.83155829  5950
STARLINK-1122,44949,53.0548,0.0001604,15.06410077,546.0698526019596,548.2914945116363,1 44949U 20001AM  25287.26442147  .00001643  00000+0  12914-3 0  9990,2 44949  53.0548 263.9443 0001604  90.8319 269.2854 15.06410077318053
STARLINK-1080,44961,53.0537,0.0001718,15.06419352,545.9624827877033,548.3420121731369,1 44961U 20001AZ  25287.26257521  .00005655  00000+0  39800-3 0  9994,2 44961  53.0537 243.9570 0001718  93.1546 266.9640 15.06419352318342
STARLINK-1090,44968,53.0532,0.0001382,15.06405419,546.2378686581196,548.1520304089709,1 44968U 20001BG  25287.26626068  .00003340  00000+0  24299-3 0  9992,2 44968  53.0532 243.9412 0001382  84.7065 275.4082 15.06405419318342
STARLINK-1107,44972,53.0094,0.0006914,15.62275446,376.4125958306031,385.75924928791756,1 44972U 20001BL  25287.33335648  .00102071  00000+0  11263-2 0  9993,2 44972  53.0094 165.4127 0006914 152.3024 329.5770 15.62275446  5798
STARLINK-1132,45044,53.055,0.000168,15.06421756,545.981432378414,548.3083270900042,1 45044U 20006A   25287.15935899  .00001396  00000+0  11252-3 0  9990,2 45044  53.0550 204.4170 0001680  97.1109 263.0072 15.06421756314653
STARLINK-1131,45047,53.0543,0.0001554,15.06415082,546.0891421834112,548.2415261488704,1 45047U 20006D   25287.20182472  .00007937  00000+0  55093-3 0  9998,2 45047  53.0543 224.7704 0001554  89.2193 270.8974 15.06415082314372
STARLINK-1134,45048,53.0363,0.001169,15.2593814,479.9433442996642,495.9963020522491,1 45048U 20006E   25287.19953886  .00050691  00000+0  19457-2 0  9990,2 45048  53.0363 205.0570 0011690  86.2142 274.0191 15.25938140314653
STARLINK-1156,45054,53.0533,0.0001687,15.06420653,545.9799645676458,548.3165558144337,1 45054U 20006L   25287.23861147  .00012458  00000+0  85326-3 0  9998,2 45054  53.0533 224.0628 0001687 105.8633 254.2542 15.06420653314386
STARLINK-1159,45057,53.0556,0.000206,15.06421307,545.719647471059,548.5728641724581,1 45057U 20006P   25287.25336087  .00011967  00000+0  82042-3 0  9999,2 45057  53.0556 223.9984 0002060  91.2213 268.9012 15.06421307314397
STARLINK-1166,45060,53.0532,0.0001412,15.06411373,546.1988472559296,548.1545558452481,1 45060U 20006S   25287.13172628  .00010242  00000+0  70527-3 0  9999,2 45060  53.0532 224.5442 0001412  81.2814 278.8334 15.06411373314374
STARLINK-1169,45061,53.0548,0.0001466,15.06400983,546.1932895295695,548.2238008434188,1 45061U 20006T   25287.20544514 -.00001471  00000+0 -79885-4 0  9998,2 45061  53.0548 224.2153 0001466 108.9903 251.1245 15.06400983314384
STARLINK-1171,45062,53.0535,0.0001877,15.12949157,525.9156420182107,528.5079099487139,1 45062U 20006U   25287.33335648  .01496545  00000+0  76450-1 0  9990,2 45062  53.0535 223.5584 0001877  56.9226  38.0536 15.12949157  5758
STARLINK-1133,45064,53.0532,0.0001367,15.06400598,546.2630302576836,548.1564200523417,1 45064U 20006W   25286.80551652 -.00003214  00000+0 -19697-3 0  9998,2 45064  53.0532 206.0054 0001367 108.3476 251.7662 15.06400598314603
